{
    "CCSDS_OMM_VERS": "3.0",
    "COMMENT": "GENERATED VIA SPACE-TRACK.ORG API",
    "CREATION_DATE": "2025-11-23T23:06:32",
    "ORIGINATOR": "18 SPCS",
    "OBJECT_NAME": "COSMOS 2527 (GLONASS)",
    "OBJECT_ID": "2018-053A",
    "CENTER_NAME": "EARTH",
    "REF_FRAME": "TEME",
    "TIME_SYSTEM": "UTC",
    "MEAN_ELEMENT_THEORY": "SGP4",
    "EPOCH": "2025-11-23T13:09:28.285920",
    "MEAN_MOTION": "2.13102201",
    "ECCENTRICITY": "0.00084850",
    "INCLINATION": "65.4626",
    "RA_OF_ASC_NODE": "80.7731",
    "ARG_OF_PERICENTER": "221.6565",
    "MEAN_ANOMALY": "138.2763",
    "EPHEMERIS_TYPE": "0",
    "CLASSIFICATION_TYPE": "U",
    "NORAD_CAT_ID": "43508",
    "ELEMENT_SET_NO": "999",
    "REV_AT_EPOCH": "5789",
    "BSTAR": "0.00000000000000",
    "MEAN_MOTION_DOT": "0.00000008",
    "MEAN_MOTION_DDOT": "0.0000000000000",
    "SEMIMAJOR_AXIS": "25508.008",
    "PERIOD": "675.732",
    "APOAPSIS": "19151.517",
    "PERIAPSIS": "19108.230",
    "OBJECT_TYPE": "PAYLOAD",
    "RCS_SIZE": "LARGE",
    "COUNTRY_CODE": "CIS",
    "LAUNCH_DATE": "2018-06-16",
    "SITE": "PKMTR",
    "DECAY_DATE": null,
    "FILE": "4896383",
    "GP_ID": "303353152",
    "TLE_LINE0": "0 COSMOS 2527 (GLONASS)",
    "TLE_LINE1": "1 43508U 18053A   25327.54824405  .00000008  00000-0  00000+0 0  9995",
    "TLE_LINE2": "2 43508  65.4626  80.7731 0008485 221.6565 138.2763  2.13102201 57890"
}